[
  {
    "OBJECT_NAME": "STARLINK-3922",
    "OBJECT_ID": "22051BA",
    "EPOCH": "2025-11-11T05:46:31.095552",
    "MEAN_MOTION": 15.08845222,
    "ECCENTRICITY": 0.0001393,
    "INCLINATION": 53.2178,
    "RA_OF_ASC_NODE": 290.8585,
    "ARG_OF_PERICENTER": 90.4219,
    "MEAN_ANOMALY": 269.6933,
    "EPHEMERIS_TYPE": 0,
    "CLASSIFICATION_TYPE": "U",
    "NORAD_CAT_ID": 52584,
    "ELEMENT_SET_NO": 999,
    "REV_AT_EPOCH": 19370,
    "BSTAR": 5.8529e-05,
    "MEAN_MOTION_DOT": 6.44e-06,
    "MEAN_MOTION_DDOT": 0.0,
    "TLE_LINE1": "1 52584U 22051BA  25315.24063768  .00000644  00000+0  58529-4 0  9992",
    "TLE_LINE2": "2 52584  53.2178 290.8585 0001393  90.4219 269.6933 15.08845222193705",
    "COMMENT": "Grouped by shell and plane from TLE"
  },
  {
    "OBJECT_NAME": "STARLINK-3906",
    "OBJECT_ID": "22051BB",
    "EPOCH": "2025-11-11T06:55:24.143232",
    "MEAN_MOTION": 15.0884576,
    "ECCENTRICITY": 0.0001423,
    "INCLINATION": 53.2172,
    "RA_OF_ASC_NODE": 290.6028,
    "ARG_OF_PERICENTER": 95.6235,
    "MEAN_ANOMALY": 264.4919,
    "EPHEMERIS_TYPE": 0,
    "CLASSIFICATION_TYPE": "U",
    "NORAD_CAT_ID": 52585,
    "ELEMENT_SET_NO": 999,
    "REV_AT_EPOCH": 19371,
    "BSTAR": 0.00026575,
    "MEAN_MOTION_DOT": 3.945e-05,
    "MEAN_MOTION_DDOT": 0.0,
    "TLE_LINE1": "1 52585U 22051BB  25315.28847388  .00003945  00000+0  26575-3 0  9997",
    "TLE_LINE2": "2 52585  53.2172 290.6028 0001423  95.6235 264.4919 15.08845760193714",
    "COMMENT": "Grouped by shell and plane from TLE"
  },
  {
    "OBJECT_NAME": "STARLINK-3910",
    "OBJECT_ID": "22051BC",
    "EPOCH": "2025-11-11T05:30:37.339776",
    "MEAN_MOTION": 15.08837934,
    "ECCENTRICITY": 0.0001322,
    "INCLINATION": 53.2175,
    "RA_OF_ASC_NODE": 290.9073,
    "ARG_OF_PERICENTER": 93.0219,
    "MEAN_ANOMALY": 267.0924,
    "EPHEMERIS_TYPE": 0,
    "CLASSIFICATION_TYPE": "U",
    "NORAD_CAT_ID": 52586,
    "ELEMENT_SET_NO": 999,
    "REV_AT_EPOCH": 19370,
    "BSTAR": 7.8646e-05,
    "MEAN_MOTION_DOT": 9.64e-06,
    "MEAN_MOTION_DDOT": 0.0,
    "TLE_LINE1": "1 52586U 22051BC  25315.22959884  .00000964  00000+0  78646-4 0  9992",
    "TLE_LINE2": "2 52586  53.2175 290.9073 0001322  93.0219 267.0924 15.08837934193701",
    "COMMENT": "Grouped by shell and plane from TLE"
  },
  {
    "OBJECT_NAME": "STARLINK-3867",
    "OBJECT_ID": "22051BD",
    "EPOCH": "2025-11-11T05:00:10.591488",
    "MEAN_MOTION": 15.08837402,
    "ECCENTRICITY": 0.0001432,
    "INCLINATION": 53.218,
    "RA_OF_ASC_NODE": 290.8569,
    "ARG_OF_PERICENTER": 96.4208,
    "MEAN_ANOMALY": 263.6948,
    "EPHEMERIS_TYPE": 0,
    "CLASSIFICATION_TYPE": "U",
    "NORAD_CAT_ID": 52587,
    "ELEMENT_SET_NO": 999,
    "REV_AT_EPOCH": 19370,
    "BSTAR": 0.0001358,
    "MEAN_MOTION_DOT": 1.874e-05,
    "MEAN_MOTION_DDOT": 0.0,
    "TLE_LINE1": "1 52587U 22051BD  25315.20845592  .00001874  00000+0  13580-3 0  9997",
    "TLE_LINE2": "2 52587  53.2180 290.8569 0001432  96.4208 263.6948 15.08837402193702",
    "COMMENT": "Grouped by shell and plane from TLE"
  },
  {
    "OBJECT_NAME": "STARLINK-3917",
    "OBJECT_ID": "22051BE",
    "EPOCH": "2025-11-11T05:14:43.234080",
    "MEAN_MOTION": 15.08836261,
    "ECCENTRICITY": 0.0001183,
    "INCLINATION": 53.2176,
    "RA_OF_ASC_NODE": 290.9558,
    "ARG_OF_PERICENTER": 87.9036,
    "MEAN_ANOMALY": 272.2092,
    "EPHEMERIS_TYPE": 0,
    "CLASSIFICATION_TYPE": "U",
    "NORAD_CAT_ID": 52588,
    "ELEMENT_SET_NO": 999,
    "REV_AT_EPOCH": 19370,
    "BSTAR": 9.900600000000001e-05,
    "MEAN_MOTION_DOT": 1.288e-05,
    "MEAN_MOTION_DDOT": 0.0,
    "TLE_LINE1": "1 52588U 22051BE  25315.21855595  .00001288  00000+0  99006-4 0  9990",
    "TLE_LINE2": "2 52588  53.2176 290.9558 0001183  87.9036 272.2092 15.08836261193702",
    "COMMENT": "Grouped by shell and plane from TLE"
  },
  {
    "OBJECT_NAME": "STARLINK-4276",
    "OBJECT_ID": "22083AZ",
    "EPOCH": "2025-11-11T07:18:31.430016",
    "MEAN_MOTION": 15.08849441,
    "ECCENTRICITY": 0.0001502,
    "INCLINATION": 53.2176,
    "RA_OF_ASC_NODE": 295.1685,
    "ARG_OF_PERICENTER": 90.2785,
    "MEAN_ANOMALY": 269.8379,
    "EPHEMERIS_TYPE": 0,
    "CLASSIFICATION_TYPE": "U",
    "NORAD_CAT_ID": 53179,
    "ELEMENT_SET_NO": 999,
    "REV_AT_EPOCH": 18404,
    "BSTAR": 0.00015975,
    "MEAN_MOTION_DOT": 2.256e-05,
    "MEAN_MOTION_DDOT": 0.0,
    "TLE_LINE1": "1 53179U 22083AZ  25315.30453044  .00002256  00000+0  15975-3 0  9993",
    "TLE_LINE2": "2 53179  53.2176 295.1685 0001502  90.2785 269.8379 15.08849441184041",
    "COMMENT": "Grouped by shell and plane from TLE"
  },
  {
    "OBJECT_NAME": "STARLINK-4258",
    "OBJECT_ID": "22083BA",
    "EPOCH": "2025-11-11T06:20:18.322080",
    "MEAN_MOTION": 15.08823241,
    "ECCENTRICITY": 0.000127,
    "INCLINATION": 53.2176,
    "RA_OF_ASC_NODE": 295.623,
    "ARG_OF_PERICENTER": 82.425,
    "MEAN_ANOMALY": 277.6887,
    "EPHEMERIS_TYPE": 0,
    "CLASSIFICATION_TYPE": "U",
    "NORAD_CAT_ID": 53180,
    "ELEMENT_SET_NO": 999,
    "REV_AT_EPOCH": 18403,
    "BSTAR": 1.2902000000000002e-06,
    "MEAN_MOTION_DOT": -2.67e-06,
    "MEAN_MOTION_DDOT": 0.0,
    "TLE_LINE1": "1 53180U 22083BA  25315.26410095 -.00000267  00000+0  12902-5 0  9999",
    "TLE_LINE2": "2 53180  53.2176 295.6230 0001270  82.4250 277.6887 15.08823241184036",
    "COMMENT": "Grouped by shell and plane from TLE"
  },
  {
    "OBJECT_NAME": "STARLINK-4257",
    "OBJECT_ID": "22083BE",
    "EPOCH": "2025-11-11T05:37:49.903104",
    "MEAN_MOTION": 15.08843796,
    "ECCENTRICITY": 0.0001422,
    "INCLINATION": 53.2173,
    "RA_OF_ASC_NODE": 295.4685,
    "ARG_OF_PERICENTER": 92.139,
    "MEAN_ANOMALY": 267.9765,
    "EPHEMERIS_TYPE": 0,
    "CLASSIFICATION_TYPE": "U",
    "NORAD_CAT_ID": 53184,
    "ELEMENT_SET_NO": 999,
    "REV_AT_EPOCH": 18404,
    "BSTAR": 0.00016945,
    "MEAN_MOTION_DOT": 2.41e-05,
    "MEAN_MOTION_DDOT": 0.0,
    "TLE_LINE1": "1 53184U 22083BE  25315.23460536  .00002410  00000+0  16945-3 0  9995",
    "TLE_LINE2": "2 53184  53.2173 295.4685 0001422  92.1390 267.9765 15.08843796184046",
    "COMMENT": "Grouped by shell and plane from TLE"
  },
  {
    "OBJECT_NAME": "STARLINK-4522",
    "OBJECT_ID": "22097A",
    "EPOCH": "2025-11-11T05:16:42.618144",
    "MEAN_MOTION": 15.08841961,
    "ECCENTRICITY": 0.0001308,
    "INCLINATION": 53.2173,
    "RA_OF_ASC_NODE": 295.949,
    "ARG_OF_PERICENTER": 92.4276,
    "MEAN_ANOMALY": 267.6866,
    "EPHEMERIS_TYPE": 0,
    "CLASSIFICATION_TYPE": "U",
    "NORAD_CAT_ID": 53388,
    "ELEMENT_SET_NO": 999,
    "REV_AT_EPOCH": 18096,
    "BSTAR": 8.291500000000002e-05,
    "MEAN_MOTION_DOT": 1.032e-05,
    "MEAN_MOTION_DDOT": 0.0,
    "TLE_LINE1": "1 53388U 22097A   25315.21993771  .00001032  00000+0  82915-4 0  9996",
    "TLE_LINE2": "2 53388  53.2173 295.9490 0001308  92.4276 267.6866 15.08841961180968",
    "COMMENT": "Grouped by shell and plane from TLE"
  },
  {
    "OBJECT_NAME": "STARLINK-4523",
    "OBJECT_ID": "22097B",
    "EPOCH": "2025-11-11T06:41:30.000480",
    "MEAN_MOTION": 15.0884405,
    "ECCENTRICITY": 0.0001576,
    "INCLINATION": 53.217,
    "RA_OF_ASC_NODE": 295.688,
    "ARG_OF_PERICENTER": 89.1903,
    "MEAN_ANOMALY": 270.927,
    "EPHEMERIS_TYPE": 0,
    "CLASSIFICATION_TYPE": "U",
    "NORAD_CAT_ID": 53389,
    "ELEMENT_SET_NO": 999,
    "REV_AT_EPOCH": 18079,
    "BSTAR": 7.315300000000001e-06,
    "MEAN_MOTION_DOT": -1.72e-06,
    "MEAN_MOTION_DDOT": 0.0,
    "TLE_LINE1": "1 53389U 22097B   25315.27881945 -.00000172  00000+0  73153-5 0  9992",
    "TLE_LINE2": "2 53389  53.2170 295.6880 0001576  89.1903 270.9270 15.08844050180792",
    "COMMENT": "Grouped by shell and plane from TLE"
  },
  {
    "OBJECT_NAME": "STARLINK-4517",
    "OBJECT_ID": "22097C",
    "EPOCH": "2025-11-11T06:46:47.268192",
    "MEAN_MOTION": 15.08849793,
    "ECCENTRICITY": 0.0001397,
    "INCLINATION": 53.2166,
    "RA_OF_ASC_NODE": 295.6685,
    "ARG_OF_PERICENTER": 89.5166,
    "MEAN_ANOMALY": 270.5986,
    "EPHEMERIS_TYPE": 0,
    "CLASSIFICATION_TYPE": "U",
    "NORAD_CAT_ID": 53390,
    "ELEMENT_SET_NO": 999,
    "REV_AT_EPOCH": 18094,
    "BSTAR": 0.00018964,
    "MEAN_MOTION_DOT": 2.732e-05,
    "MEAN_MOTION_DDOT": 0.0,
    "TLE_LINE1": "1 53390U 22097C   25315.28249153  .00002732  00000+0  18964-3 0  9994",
    "TLE_LINE2": "2 53390  53.2166 295.6685 0001397  89.5166 270.5986 15.08849793180944",
    "COMMENT": "Grouped by shell and plane from TLE"
  },
  {
    "OBJECT_NAME": "STARLINK-4521",
    "OBJECT_ID": "22097D",
    "EPOCH": "2025-11-11T06:36:11.815200",
    "MEAN_MOTION": 15.08842742,
    "ECCENTRICITY": 0.0001398,
    "INCLINATION": 53.2171,
    "RA_OF_ASC_NODE": 295.7041,
    "ARG_OF_PERICENTER": 88.2366,
    "MEAN_ANOMALY": 271.8787,
    "EPHEMERIS_TYPE": 0,
    "CLASSIFICATION_TYPE": "U",
    "NORAD_CAT_ID": 53391,
    "ELEMENT_SET_NO": 999,
    "REV_AT_EPOCH": 18079,
    "BSTAR": 7.7521e-05,
    "MEAN_MOTION_DOT": 9.46e-06,
    "MEAN_MOTION_DDOT": 0.0,
    "TLE_LINE1": "1 53391U 22097D   25315.27513675  .00000946  00000+0  77521-4 0  9997",
    "TLE_LINE2": "2 53391  53.2171 295.7041 0001398  88.2366 271.8787 15.08842742180790",
    "COMMENT": "Grouped by shell and plane from TLE"
  },
  {
    "OBJECT_NAME": "STARLINK-4535",
    "OBJECT_ID": "22097E",
    "EPOCH": "2025-11-11T06:25:36.108192",
    "MEAN_MOTION": 15.08839424,
    "ECCENTRICITY": 0.0001404,
    "INCLINATION": 53.2174,
    "RA_OF_ASC_NODE": 295.7373,
    "ARG_OF_PERICENTER": 90.7209,
    "MEAN_ANOMALY": 269.3944,
    "EPHEMERIS_TYPE": 0,
    "CLASSIFICATION_TYPE": "U",
    "NORAD_CAT_ID": 53392,
    "ELEMENT_SET_NO": 999,
    "REV_AT_EPOCH": 18079,
    "BSTAR": 0.00011393,
    "MEAN_MOTION_DOT": 1.526e-05,
    "MEAN_MOTION_DDOT": 0.0,
    "TLE_LINE1": "1 53392U 22097E   25315.26777903  .00001526  00000+0  11393-3 0  9992",
    "TLE_LINE2": "2 53392  53.2174 295.7373 0001404  90.7209 269.3944 15.08839424180794",
    "COMMENT": "Grouped by shell and plane from TLE"
  }
]